GLOBALSTAR M045         
1 25676U 99019A   24301.95096257 -.00000121  00000+0 -24076-3 0  9994
2 25676  51.9967 247.1862 0000840  73.0861   1.8474 12.27047963164884
GLOBALSTAR M019         
1 25677U 99019B   24301.91917494  .00000071  00000+0  16821-2 0  9996
2 25677  51.9909   1.2986 0001109 188.9523 341.9885 12.13866452156935
GLOBALSTAR M044         
1 25678U 99019C   24301.97420937 -.00000030  00000+0  74300-3 0  9997
2 25678  51.9966 283.4566 0006513 316.8686  76.7297 11.90245155143675
GLOBALSTAR M042         
1 25679U 99019D   24301.94348861  .00000001  00000+0  87995-3 0  9991
2 25679  52.0040 346.5792 0002993 172.9144 246.1415 12.22071737156860
GLOBALSTAR M025         
1 25770U 99031A   24301.83577678 -.00000028  00000+0  12049-2 0  9992
2 25770  51.9846 337.5310 0001665 114.7451  56.4078 11.22555105455617
GLOBALSTAR M049         
1 25771U 99031B   24301.91434802 -.00000067  00000+0 -60526-4 0  9992
2 25771  51.9916   0.4375 0002889 352.8774   7.1981 11.12112044 91583
GLOBALSTAR M047         
1 25772U 99031C   24301.89991257 -.00000052  00000+0  48039-3 0  9999
2 25772  51.9872  19.6306 0016277 222.2195 137.7357 11.31924348444807
GLOBALSTAR M052         
1 25773U 99031D   24301.76779269 -.00000054  00000+0  41230-3 0  9991
2 25773  51.9832 112.7115 0003350 130.2031 243.0399 11.15054968452587
